CCSDS_OMM_VERS = 2.0
CREATION_DATE  = 
ORIGINATOR     = 

OBJECT_NAME    = HTV-X1
OBJECT_ID      = 2025-241A
CENTER_NAME    = EARTH
REF_FRAME      = TEME
TIME_SYSTEM    = UTC
MEAN_ELEMENT_THEORY = SGP/SGP4

EPOCH          = 2026-03-14T08:15:41.718240
MEAN_MOTION    = 15.22910005
ECCENTRICITY   = .00057324
INCLINATION    = 51.6357
RA_OF_ASC_NODE = 50.7100
ARG_OF_PERICENTER = 187.3443
MEAN_ANOMALY   = 172.7451

EPHEMERIS_TYPE = 0
CLASSIFICATION_TYPE = U
NORAD_CAT_ID   = 66174
ELEMENT_SET_NO = 999
REV_AT_EPOCH   = 2166
BSTAR          = .5679389E-3
MEAN_MOTION_DOT = .13198E-3
MEAN_MOTION_DDOT = 0

CCSDS_OMM_VERS = 2.0
CREATION_DATE  = 
ORIGINATOR     = 

OBJECT_NAME    = SZ-21 MODULE
OBJECT_ID      = 2025-246C
CENTER_NAME    = EARTH
REF_FRAME      = TEME
TIME_SYSTEM    = UTC
MEAN_ELEMENT_THEORY = SGP/SGP4

EPOCH          = 2026-03-23T04:26:13.491168
MEAN_MOTION    = 15.69572241
ECCENTRICITY   = .00006541
INCLINATION    = 41.4734
RA_OF_ASC_NODE = 120.2206
ARG_OF_PERICENTER = 218.7155
MEAN_ANOMALY   = 141.3640

EPHEMERIS_TYPE = 0
CLASSIFICATION_TYPE = U
NORAD_CAT_ID   = 66515
ELEMENT_SET_NO = 999
REV_AT_EPOCH   = 2019
BSTAR          = .35990835E-3
MEAN_MOTION_DOT = .43706E-3
MEAN_MOTION_DDOT = 0

CCSDS_OMM_VERS = 2.0
CREATION_DATE  = 
ORIGINATOR     = 

OBJECT_NAME    = SHENZHOU-22
OBJECT_ID      = 2025-272A
CENTER_NAME    = EARTH
REF_FRAME      = TEME
TIME_SYSTEM    = UTC
MEAN_ELEMENT_THEORY = SGP/SGP4

EPOCH          = 2026-03-23T12:49:44.100480
MEAN_MOTION    = 15.61385941
ECCENTRICITY   = .0005036
INCLINATION    = 41.4661
RA_OF_ASC_NODE = 123.8751
ARG_OF_PERICENTER = 3.1602
MEAN_ANOMALY   = 356.9268

EPHEMERIS_TYPE = 0
CLASSIFICATION_TYPE = U
NORAD_CAT_ID   = 66645
ELEMENT_SET_NO = 999
REV_AT_EPOCH   = 27982
BSTAR          = .25938E-3
MEAN_MOTION_DOT = .22489E-3
MEAN_MOTION_DDOT = 0

CCSDS_OMM_VERS = 2.0
CREATION_DATE  = 
ORIGINATOR     = 

OBJECT_NAME    = SOYUZ-MS 28
OBJECT_ID      = 2025-275A
CENTER_NAME    = EARTH
REF_FRAME      = TEME
TIME_SYSTEM    = UTC
MEAN_ELEMENT_THEORY = SGP/SGP4

EPOCH          = 2026-03-23T10:53:20.760000
MEAN_MOTION    = 15.48489537
ECCENTRICITY   = .0006177
INCLINATION    = 51.6345
RA_OF_ASC_NODE = 4.3184
ARG_OF_PERICENTER = 224.0290
MEAN_ANOMALY   = 136.0206

EPHEMERIS_TYPE = 0
CLASSIFICATION_TYPE = U
NORAD_CAT_ID   = 66664
ELEMENT_SET_NO = 999
REV_AT_EPOCH   = 55851
BSTAR          = .28089E-3
MEAN_MOTION_DOT = .14788E-3
MEAN_MOTION_DDOT = 0

CCSDS_OMM_VERS = 2.0
CREATION_DATE  = 
ORIGINATOR     = 

OBJECT_NAME    = DUPLEX
OBJECT_ID      = 1998-067XS
CENTER_NAME    = EARTH
REF_FRAME      = TEME
TIME_SYSTEM    = UTC
MEAN_ELEMENT_THEORY = SGP/SGP4

EPOCH          = 2026-03-23T03:09:54.959040
MEAN_MOTION    = 15.57057045
ECCENTRICITY   = .00031297
INCLINATION    = 51.6301
RA_OF_ASC_NODE = 2.1718
ARG_OF_PERICENTER = 170.5661
MEAN_ANOMALY   = 189.5390

EPHEMERIS_TYPE = 0
CLASSIFICATION_TYPE = U
NORAD_CAT_ID   = 66906
ELEMENT_SET_NO = 999
REV_AT_EPOCH   = 1722
BSTAR          = .49885683E-3
MEAN_MOTION_DOT = .36468E-3
MEAN_MOTION_DDOT = 0

CCSDS_OMM_VERS = 2.0
CREATION_DATE  = 
ORIGINATOR     = 

OBJECT_NAME    = ISS OBJECT XT
OBJECT_ID      = 1998-067XT
CENTER_NAME    = EARTH
REF_FRAME      = TEME
TIME_SYSTEM    = UTC
MEAN_ELEMENT_THEORY = SGP/SGP4

EPOCH          = 2026-03-23T03:03:30.951648
MEAN_MOTION    = 15.73983745
ECCENTRICITY   = .0005369
INCLINATION    = 51.6254
RA_OF_ASC_NODE = 356.8640
ARG_OF_PERICENTER = 166.1185
MEAN_ANOMALY   = 193.9962

EPHEMERIS_TYPE = 0
CLASSIFICATION_TYPE = U
NORAD_CAT_ID   = 66907
ELEMENT_SET_NO = 999
REV_AT_EPOCH   = 1729
BSTAR          = .1687406E-2
MEAN_MOTION_DOT = .252347E-2
MEAN_MOTION_DDOT = 0

CCSDS_OMM_VERS = 2.0
CREATION_DATE  = 
ORIGINATOR     = 

OBJECT_NAME    = ISS OBJECT XU
OBJECT_ID      = 1998-067XU
CENTER_NAME    = EARTH
REF_FRAME      = TEME
TIME_SYSTEM    = UTC
MEAN_ELEMENT_THEORY = SGP/SGP4

EPOCH          = 2026-03-23T02:59:11.220288
MEAN_MOTION    = 15.74162534
ECCENTRICITY   = .00056023
INCLINATION    = 51.6246
RA_OF_ASC_NODE = 356.8387
ARG_OF_PERICENTER = 166.2607
MEAN_ANOMALY   = 193.8545

EPHEMERIS_TYPE = 0
CLASSIFICATION_TYPE = U
NORAD_CAT_ID   = 66908
ELEMENT_SET_NO = 999
REV_AT_EPOCH   = 1729
BSTAR          = .17375684E-2
MEAN_MOTION_DOT = .262204E-2
MEAN_MOTION_DDOT = 0

CCSDS_OMM_VERS = 2.0
CREATION_DATE  = 
ORIGINATOR     = 

OBJECT_NAME    = SILVERSAT
OBJECT_ID      = 1998-067XV
CENTER_NAME    = EARTH
REF_FRAME      = TEME
TIME_SYSTEM    = UTC
MEAN_ELEMENT_THEORY = SGP/SGP4

EPOCH          = 2026-03-23T11:24:25.495776
MEAN_MOTION    = 15.78703515
ECCENTRICITY   = .000621
INCLINATION    = 51.6224
RA_OF_ASC_NODE = 353.9233
ARG_OF_PERICENTER = 174.2086
MEAN_ANOMALY   = 185.8987

EPHEMERIS_TYPE = 0
CLASSIFICATION_TYPE = U
NORAD_CAT_ID   = 66909
ELEMENT_SET_NO = 999
REV_AT_EPOCH   = 1736
BSTAR          = .14886E-2
MEAN_MOTION_DOT = .274859E-2
MEAN_MOTION_DDOT = 0

CCSDS_OMM_VERS = 2.0
CREATION_DATE  = 
ORIGINATOR     = 

OBJECT_NAME    = ISS OBJECT XW
OBJECT_ID      = 1998-067XW
CENTER_NAME    = EARTH
REF_FRAME      = TEME
TIME_SYSTEM    = UTC
MEAN_ELEMENT_THEORY = SGP/SGP4

EPOCH          = 2026-03-23T03:07:01.684704
MEAN_MOTION    = 15.72839352
ECCENTRICITY   = .00057814
INCLINATION    = 51.6244
RA_OF_ASC_NODE = 356.8723
ARG_OF_PERICENTER = 166.1394
MEAN_ANOMALY   = 193.9764

EPHEMERIS_TYPE = 0
CLASSIFICATION_TYPE = U
NORAD_CAT_ID   = 66910
ELEMENT_SET_NO = 999
REV_AT_EPOCH   = 1729
BSTAR          = .15745779E-2
MEAN_MOTION_DOT = .223399E-2
MEAN_MOTION_DDOT = 0

CCSDS_OMM_VERS = 2.0
CREATION_DATE  = 
ORIGINATOR     = 

OBJECT_NAME    = ISS OBJECT XX
OBJECT_ID      = 1998-067XX
CENTER_NAME    = EARTH
REF_FRAME      = TEME
TIME_SYSTEM    = UTC
MEAN_ELEMENT_THEORY = SGP/SGP4

EPOCH          = 2026-03-23T02:54:37.918944
MEAN_MOTION    = 15.83698112
ECCENTRICITY   = .00077498
INCLINATION    = 51.6200
RA_OF_ASC_NODE = 354.5306
ARG_OF_PERICENTER = 174.8625
MEAN_ANOMALY   = 185.2459

EPHEMERIS_TYPE = 0
CLASSIFICATION_TYPE = U
NORAD_CAT_ID   = 66911
ELEMENT_SET_NO = 999
REV_AT_EPOCH   = 1731
BSTAR          = .21091614E-2
MEAN_MOTION_DOT = .504349E-2
MEAN_MOTION_DDOT = 0

CCSDS_OMM_VERS = 2.0
CREATION_DATE  = 
ORIGINATOR     = 

OBJECT_NAME    = ISS OBJECT XY
OBJECT_ID      = 1998-067XY
CENTER_NAME    = EARTH
REF_FRAME      = TEME
TIME_SYSTEM    = UTC
MEAN_ELEMENT_THEORY = SGP/SGP4

EPOCH          = 2026-03-23T04:23:00.606624
MEAN_MOTION    = 15.66386367
ECCENTRICITY   = .00040315
INCLINATION    = 51.6273
RA_OF_ASC_NODE = 358.7506
ARG_OF_PERICENTER = 168.1265
MEAN_ANOMALY   = 191.9827

EPHEMERIS_TYPE = 0
CLASSIFICATION_TYPE = U
NORAD_CAT_ID   = 66912
ELEMENT_SET_NO = 999
REV_AT_EPOCH   = 1726
BSTAR          = .11004278E-2
MEAN_MOTION_DOT = .117705E-2
MEAN_MOTION_DDOT = 0

CCSDS_OMM_VERS = 2.0
CREATION_DATE  = 
ORIGINATOR     = 

OBJECT_NAME    = KNACKSAT-2
OBJECT_ID      = 1998-067XZ
CENTER_NAME    = EARTH
REF_FRAME      = TEME
TIME_SYSTEM    = UTC
MEAN_ELEMENT_THEORY = SGP/SGP4

EPOCH          = 2026-03-23T12:05:09.820896
MEAN_MOTION    = 15.52967670
ECCENTRICITY   = .0009815
INCLINATION    = 51.6321
RA_OF_ASC_NODE = 3.1544
ARG_OF_PERICENTER = 235.6966
MEAN_ANOMALY   = 124.3095

EPHEMERIS_TYPE = 0
CLASSIFICATION_TYPE = U
NORAD_CAT_ID   = 67683
ELEMENT_SET_NO = 999
REV_AT_EPOCH   = 693
BSTAR          = .52676E-3
MEAN_MOTION_DOT = .33155E-3
MEAN_MOTION_DDOT = 0

